STARLINK-3849           
1 52343U 22045N   24022.46748432  .00002751  00000+0  19084-3 0  9997
2 52343  53.2171  98.2071 0001578  68.4805 291.6355 15.08851172 98317
STARLINK-3851           
1 52344U 22045P   24022.45369543  .00001843  00000+0  13385-3 0  9998
2 52344  53.2177  88.3382 0001767  97.3157 262.8036 15.08840496 98447
STARLINK-3852           
1 52345U 22045Q   24022.48042126 -.00000536  00000+0 -15572-4 0  9998
2 52345  53.2175  88.3114 0001207  95.7660 264.3470 15.08841612 98438
STARLINK-3812           
1 52346U 22045R   24022.44728247  .00000930  00000+0  76492-4 0  9994
2 52346  53.2170  88.3129 0001565  82.2885 277.8285 15.08845325 98446
STARLINK-3826           
1 52347U 22045S   24022.45833362 -.00000358  00000+0 -44283-5 0  9991
2 52347  53.2170  88.2624 0001618  87.8900 272.2278 15.08833129 98444
STARLINK-3829           
1 52348U 22045T   24022.50519939 -.00004326  00000+0 -25369-3 0  9990
2 52348  53.2176  88.0450 0001723  68.1058 292.0117 15.08864346 98457
STARLINK-3819           
1 52349U 22045U   24022.45000429  .00001877  00000+0  13602-3 0  9997
2 52349  53.2181  88.2918 0001637  92.1617 267.9562 15.08838240 98445
STARLINK-3754           
1 52350U 22045V   24022.50152669  .00003310  00000+0  22592-3 0  9991
2 52350  53.2164  88.0601 0001864  87.1993 272.9213 15.08843778 98450
STARLINK-3838           
1 52352U 22045X   24022.49048994  .00001211  00000+0  94151-4 0  9995
2 52352  53.2162  88.1071 0001495  70.1162 289.9991 15.08834850 98454
STARLINK-3807           
1 52353U 22045Y   24022.49784429 -.00000557  00000+0 -16910-4 0  9997
2 52353  53.2185  88.0745 0001590  83.1906 276.9267 15.08846073 98455
STARLINK-3876           
1 52354U 22045Z   24022.47944668  .00000769  00000+0  66417-4 0  9999
2 52354  53.2177  88.1502 0001508  96.2733 263.8431 15.08840185 98457
STARLINK-3877           
1 52355U 22045AA  24022.49416298 -.00000304  00000+0 -10185-5 0  9994
2 52355  53.2165  88.0889 0001451 105.8000 254.3152 15.08849231 98459
STARLINK-3801           
1 52356U 22045AB  24022.41688942  .00000586  00000+0  54894-4 0  9998
2 52356  53.2170  88.4622 0001423  81.2259 278.8894 15.08842645 98442
STARLINK-3821           
1 52357U 22045AC  24022.48681651  .00002044  00000+0  14649-3 0  9990
2 52357  53.2181  88.1152 0001505  95.2748 264.8416 15.08838668 98455
STARLINK-3837           
1 52358U 22045AD  24022.46840358  .00001339  00000+0  10223-3 0  9990
2 52358  53.2172  88.2021 0001569  93.5549 266.5622 15.08842293 98459
STARLINK-3853           
1 52359U 22045AE  24022.48408344  .00001149  00000+0  90250-4 0  9996
2 52359  53.2174  88.1364 0001547  68.3299 291.7858 15.08842319 98459
STARLINK-3824           
1 52360U 22045AF  24022.52820305  .00001218  00000+0  94579-4 0  9993
2 52360  53.2163  77.9326 0001399 102.8342 257.2807 15.08848690 98584
STARLINK-3728           
1 52361U 22045AG  24022.40952752  .00000226  00000+0  32317-4 0  9993
2 52361  53.2163  88.4659 0001490 100.6810 259.4350 15.08838467 98442
STARLINK-3848           
1 52362U 22045AH  24022.52452432  .00001391  00000+0  10544-3 0  9998
2 52362  53.2161  77.9518 0001337 101.4475 258.6667 15.08843944 98598
STARLINK-3830           
1 52363U 22045AJ  24022.40584769  .00000547  00000+0  52434-4 0  9992
2 52363  53.2167  88.4849 0001322  83.9828 276.1314 15.08837905 98447
STARLINK-3820           
1 52364U 22045AK  24022.44355476  .00000223  00000+0  32130-4 0  9990
2 52364  53.2182  78.2259 0001629  95.4171 264.7007 15.08838202 98584
STARLINK-3874           
1 52365U 22045AL  24022.53187601  .00006955  00000+0  45443-3 0  9992
2 52365  53.2178  77.9190 0001611 110.7058 249.4107 15.08856748 98593
STARLINK-3808           
1 52366U 22045AM  24022.44724493  .00000274  00000+0  35275-4 0  9990
2 52366  53.2159  78.2960 0001294  93.2406 266.8734 15.08844107 98585
STARLINK-3817           
1 52367U 22045AN  24022.52084502  .00001598  00000+0  11845-3 0  9996
2 52367  53.2163  77.9685 0001397  89.0274 271.0878 15.08842103 98593
STARLINK-3834           
1 52368U 22045AP  24022.43620329  .00006330  00000+0  41538-3 0  9991
2 52368  53.2169  78.3501 0001508 103.8149 256.3011 15.08845235 98574
STARLINK-3841           
1 52369U 22045AQ  24022.51715865  .00002347  00000+0  16547-3 0  9997
2 52369  53.2165  77.9811 0001560 102.9750 257.1417 15.08847200 98591
STARLINK-3827           
1 52370U 22045AR  24022.37828087 -.00000899  00000+0 -38391-4 0  9998
2 52370  53.2169  78.6144 0001353  80.4234 279.6911 15.08844441 98571
STARLINK-3798           
1 52371U 22045AS  24022.44084750 -.00000274  00000+0  86463-6 0  9999
2 52371  53.2172  78.3388 0001627 101.4784 258.6391 15.08833484 98575
STARLINK-3796           
1 52372U 22045AT  24022.43252787  .00005020  00000+0  33328-3 0  9998
2 52372  53.2169  78.3691 0001638  89.9587 270.1593 15.08838903 98576
STARLINK-3550           
1 52373U 22045AU  24022.42148672 -.00000170  00000+0  74266-5 0  9995
2 52373  53.2177  78.4198 0001792  75.5140 284.6050 15.08844102 98583
STARLINK-3762           
1 52374U 22045AV  24022.42516749  .00001740  00000+0  12738-3 0  9997
2 52374  53.2166  78.4009 0001767  82.8882 277.2311 15.08842123 98588
STARLINK-3785           
1 52375U 22045AW  24022.42884505  .00004433  00000+0  29636-3 0  9993
2 52375  53.2171  78.3829 0001514  94.2491 265.8674 15.08848120 98585
STARLINK-3767           
1 52376U 22045AX  24022.41780317  .00000224  00000+0  32198-4 0  9991
2 52376  53.2183  78.4337 0001732 108.2953 251.8227 15.08845086 98582
STARLINK-3805           
1 52377U 22045AY  24022.43991176  .00001363  00000+0  10373-3 0  9996
2 52377  53.2174  78.5541 0001469 103.8029 256.3127 15.08837304 98575
STARLINK-3806           
1 52378U 22045AZ  24022.47668634  .00000309  00000+0  37536-4 0  9991
2 52378  53.2177  78.1663 0001524  93.8873 266.2293 15.08843195 98598
STARLINK-3800           
1 52379U 22045BA  24022.41412583  .00001600  00000+0  11860-3 0  9992
2 52379  53.2165  78.4459 0001534  87.2816 272.8352 15.08842210 98582
STARLINK-3793           
1 52380U 22045BB  24022.39296967 -.00000597  00000+0 -19397-4 0  9997
2 52380  53.2181  68.5749 0001777  97.2999 262.8195 15.08835082 98714
STARLINK-3803           
1 52381U 22045BC  24022.47300875  .00001148  00000+0  90193-4 0  9995
2 52381  53.2178  78.1827 0001423  88.7213 271.3942 15.08840730 98594
STARLINK-3799           
1 52382U 22045BD  24022.46932918  .00001309  00000+0  10034-3 0  9998
2 52382  53.2167  78.2092 0001367  78.6284 281.4862 15.08836828 98597
STARLINK-3811           
1 52383U 22045BE  24022.35985255  .00002135  00000+0  15222-3 0  9991
2 52383  53.2185  68.7232 0001890 117.5006 242.6178 15.08833128 98717
STARLINK-3870           
1 52451U 22049A   24022.11972834  .00005851  00000+0  38537-3 0  9996
2 52451  53.2168 319.7723 0001161 106.1547 253.9573 15.08843041 94729
STARLINK-3909           
1 52452U 22049B   24022.19700754  .00001919  00000+0  13864-3 0  9992
2 52452  53.2184 319.2887 0001510  96.5372 263.5792 15.08838003 94733
STARLINK-3872           
1 52453U 22049C   24022.90724649 -.00000334  00000+0 -28883-5 0  9992
2 52453  53.2174 316.2264 0001620 124.4257 235.6888 15.08834269 94842
STARLINK-3888           
1 52454U 22049D   24022.24851719  .00004077  00000+0  27394-3 0  9999
2 52454  53.2176 319.1871 0001577  93.8444 266.2728 15.08858078 94745
STARLINK-3890           
1 52455U 22049E   24022.24212452 -.00001011  00000+0 -45444-4 0  9999
2 52455  53.2195 319.2129 0001726 109.0989 251.0191 15.08844988 94745
STARLINK-3896           
1 52456U 22049F   24022.10596177  .00000032  00000+0  20113-4 0  9990
2 52456  53.2176 319.8292 0001621  88.9622 271.1556 15.08843314 94723
STARLINK-3899           
1 52457U 22049G   24022.10132519  .00003148  00000+0  21576-3 0  9991
2 52457  53.2170 319.8396 0001680  93.9022 266.2162 15.08847260 94720
STARLINK-3898           
1 52458U 22049H   24022.95972213  .00000575  00000+0  54230-4 0  9993
2 52458  53.2188 315.9894 0001833 128.6206 231.4951 15.08844692 94850
STARLINK-3856           
1 52459U 22049J   24022.94496875 -.00002509  00000+0 -13961-3 0  9994
2 52459  53.2176 306.0644 0001492 111.1280 248.9871 15.08838272 94987
STARLINK-3865           
1 52460U 22049K   24022.93760550 -.00000612  00000+0 -20359-4 0  9992
2 52460  53.2172 306.0442 0001892 121.3171 238.8007 15.08836684 94981
STARLINK-3900           
1 52461U 22049L   24022.94221811  .00000574  00000+0  54177-4 0  9996
2 52461  53.2185 296.0795 0002026  54.9583 305.1599 15.08833527 95127
STARLINK-3903           
1 52462U 22049M   24022.93857112  .00000379  00000+0  41886-4 0  9991
2 52462  53.2188 306.1052 0001495  86.5694 273.5469 15.08835834 94983
STARLINK-3885           
1 52463U 22049N   24022.93853424 -.00001696  00000+0 -88494-4 0  9995
2 52463  53.2177 296.0942 0001718  73.9533 286.1648 15.08838505 95121
STARLINK-3904           
1 52464U 22049P   24022.94129066 -.00002220  00000+0 -12137-3 0  9999
2 52464  53.2175 306.0721 0001660 116.6040 243.5122 15.08848199 94988
STARLINK-3863           
1 52465U 22049Q   24022.93485023  .00001173  00000+0  91799-4 0  9993
2 52465  53.2169 296.1072 0001734  78.0586 282.0601 15.08838617 95129
STARLINK-3840           
1 52466U 22049R   24022.94594289  .00000260  00000+0  34435-4 0  9990
2 52466  53.2175 306.2290 0001257 101.2067 258.9067 15.08833879 94981
STARLINK-3873           
1 52467U 22049S   24022.93392674 -.00001040  00000+0 -47248-4 0  9999
2 52467  53.2178 306.1027 0001833 132.7141 227.4006 15.08841055 94983
STARLINK-3864           
1 52468U 22049T   24022.91921333  .00000124  00000+0  25864-4 0  9998
2 52468  53.2191 306.1804 0001478  74.7654 285.3501 15.08836602 94986
STARLINK-3828           
1 52469U 22049U   24022.92657039  .00000088  00000+0  23608-4 0  9992
2 52469  53.2172 306.1408 0001392 110.9025 249.2117 15.08838197 94989
